[{"OBJECT_NAME":"HERMES-3","OBJECT_ID":"2025-052BR","EPOCH":"2026-03-09T22:30:01.073952","MEAN_MOTION":15.30039786,"ECCENTRICITY":0.00079928,"INCLINATION":97.3987,"RA_OF_ASC_NODE":324.6131,"ARG_OF_PERICENTER":112.9583,"MEAN_ANOMALY":247.2502,"EPHEMERIS_TYPE":0,"CLASSIFICATION_TYPE":"U","NORAD_CAT_ID":63835,"ELEMENT_SET_NO":999,"REV_AT_EPOCH":5486,"BSTAR":0.0006995793,"MEAN_MOTION_DOT":0.00020316,"MEAN_MOTION_DDOT":0},{"OBJECT_NAME":"STARLINK-34223","OBJECT_ID":"2025-124V","EPOCH":"2026-03-09T19:37:52.080960","MEAN_MOTION":15.27573927,"ECCENTRICITY":9.17e-5,"INCLINATION":42.9923,"RA_OF_ASC_NODE":117.2018,"ARG_OF_PERICENTER":311.0752,"MEAN_ANOMALY":49.002,"EPHEMERIS_TYPE":0,"CLASSIFICATION_TYPE":"U","NORAD_CAT_ID":64336,"ELEMENT_SET_NO":999,"REV_AT_EPOCH":4184,"BSTAR":0.00093482666,"MEAN_MOTION_DOT":0.00025547,"MEAN_MOTION_DDOT":0}]
